STARLINK-2255           
1 48597U 21041AW  25075.92050626  .00014276  00000+0  97506-3 0  9999
2 48597  53.0545 307.7064 0001029  87.7770 272.3337 15.06411511212403
STARLINK-2275           
1 48600U 21041AZ  25075.98776474  .00012471  00000+0  85418-3 0  9990
2 48600  53.0529 297.4022 0001348  88.6989 271.4155 15.06419805212553
STARLINK-2713           
1 48602U 21041BB  25075.78457739  .00005631  00000+0  39659-3 0  9996
2 48602  53.0554 283.3140 0001420  92.6712 267.4439 15.06402646212722
STARLINK-2714           
1 48603U 21041BC  25075.83016812  .00004717  00000+0  33526-3 0  9997
2 48603  53.0533 278.1077 0001319  98.7630 261.3509 15.06410439212814
STARLINK-2757           
1 48604U 21041BD  25075.96475082  .00014903  00000+0  10171-2 0  9998
2 48604  53.0541 307.5087 0001242  90.6463 269.4669 15.06405110212414
STARLINK-2739           
1 48639U 21044B   25075.83619200 -.00002209  00000+0 -12940-3 0  9992
2 48639  53.0528 283.0915 0001085  80.4297 279.6814 15.06409267209847
STARLINK-2736           
1 48640U 21044C   25075.89519381  .00002023  00000+0  15465-3 0  9996
2 48640  53.0541 283.1009 0001474  93.0665 267.0493 15.06396045209843
STARLINK-2754           
1 48641U 21044D   25075.90761639  .00005507  00000+0  38834-3 0  9999
2 48641  53.0532 287.7634 0001430  92.0487 268.0665 15.06397476209785
STARLINK-2646           
1 48642U 21044E   25075.85599633  .00006732  00000+0  47030-3 0  9996
2 48642  53.0530 288.0055 0001458  90.5690 269.5466 15.06410314209775
STARLINK-2704           
1 48643U 21044F   25075.90297059  .00019562  00000+0  13281-2 0  9995
2 48643  53.0525 287.7781 0000930  74.6445 285.4647 15.06412450209789
STARLINK-2695           
1 48644U 21044G   25075.90022938  .00003808  00000+0  27437-3 0  9993
2 48644  53.0545 287.8002 0001344  96.9447 263.1695 15.06399546209784
STARLINK-2733           
1 48645U 21044H   25076.25001157  .00624681  16705-3  18225-2 0  9998
2 48645  53.0437 256.2595 0007630 281.3654 253.8547 15.92240260211155
STARLINK-2732           
1 48646U 21044J   25076.02555246  .00010066  00000+0  69352-3 0  9998
2 48646  53.0534 287.2353 0001347  93.0614 267.0529 15.06407928210701
STARLINK-2521           
1 48648U 21044L   25075.90393193  .00002240  00000+0  16919-3 0  9993
2 48648  53.0549 287.9422 0001557  69.9677 290.1480 15.06407499209789
STARLINK-2673           
1 48649U 21044M   25076.01817638  .00010369  00000+0  71393-3 0  9990
2 48649  53.0536 287.2667 0001829  97.7848 262.3348 15.06402834210639
STARLINK-2672           
1 48650U 21044N   25075.81545606  .00002018  00000+0  15428-3 0  9991
2 48650  53.0543 288.1750 0001414  95.7422 264.3728 15.06413407209762
STARLINK-2731           
1 48651U 21044P   25075.81176442  .00004445  00000+0  31701-3 0  9998
2 48651  53.0539 288.1946 0001452  81.6064 278.5090 15.06415420209769
STARLINK-2727           
1 48652U 21044Q   25075.80808654  .00006883  00000+0  48028-3 0  9993
2 48652  53.0539 288.2128 0001546  99.4416 260.6748 15.06417324210607
STARLINK-2720           
1 48653U 21044R   25075.87073428  .00003542  00000+0  25647-3 0  9995
2 48653  53.0543 287.9314 0001453  89.2752 270.8403 15.06410657209772
STARLINK-2651           
1 48654U 21044S   25075.86704689  .00002080  00000+0  15847-3 0  9992
2 48654  53.0547 287.9481 0001345  87.0757 273.0386 15.06411283209774
STARLINK-2657           
1 48655U 21044T   25075.79701909  .00005689  00000+0  40033-3 0  9990
2 48655  53.0548 288.2581 0001156  96.9952 263.1169 15.06412917209760
STARLINK-2701           
1 48656U 21044U   25075.85968191  .00000880  00000+0  77980-4 0  9996
2 48656  53.0548 287.9769 0001259  93.6491 266.4642 15.06402160209773
STARLINK-2734           
1 48657U 21044V   25075.88818248  .00011862  00000+0  81386-3 0  9993
2 48657  53.0539 287.4933 0001500  81.8727 278.2432 15.06401998209789
STARLINK-2647           
1 48658U 21044W   25075.98500837  .00008886  00000+0  61461-3 0  9991
2 48658  53.0526 287.4142 0001288  92.5923 267.5214 15.06406192210690
STARLINK-2717           
1 48659U 21044X   25075.84862569  .00004565  00000+0  32515-3 0  9998
2 48659  53.0532 288.0309 0001286  91.3363 268.7773 15.06400183209777
STARLINK-2726           
1 48662U 21044AA  25075.84217474  .00009797  00000+0  67513-3 0  9999
2 48662  53.0537 278.0588 0001496  76.5793 283.5363 15.06432231209914
STARLINK-2667           
1 48663U 21044AB  25075.83848706  .00005064  00000+0  35854-3 0  9993
2 48663  53.0556 278.0761 0001496  92.3860 267.7300 15.06409423209912
STARLINK-2709           
1 48664U 21044AC  25072.98215250  .01391332  00000+0  45327-2 0  9991
2 48664  53.0452 280.6315 0001948 316.4136 194.0211 15.87310983210523
STARLINK-2666           
1 48666U 21044AE  25075.86065302  .00002222  00000+0  16797-3 0  9990
2 48666  53.0536 278.4485 0001474  88.9214 271.1944 15.06412011209909
STARLINK-2735           
1 48667U 21044AF  25075.83111411  .00003902  00000+0  28063-3 0  9996
2 48667  53.0536 278.1058 0001294  83.6887 276.4250 15.06407251209910
STARLINK-2738           
1 48668U 21044AG  25075.82742795  .00003168  00000+0  23144-3 0  9990
2 48668  53.0532 278.1229 0001397  90.5848 269.5300 15.06403304209919
STARLINK-2707           
1 48669U 21044AH  25075.82375187  .00004828  00000+0  34281-3 0  9996
2 48669  53.0532 278.1394 0001441  84.6708 275.4445 15.06400404209905
STARLINK-2763           
1 48670U 21044AJ  25075.82005625  .00001997  00000+0  15293-3 0  9991
2 48670  53.0530 278.1575 0001519  88.6397 271.4766 15.06403001209908
STARLINK-2745           
1 48671U 21044AK  25075.84588141  .00006738  00000+0  47049-3 0  9995
2 48671  53.0544 278.3522 0001476  90.8949 269.2209 15.06423220209900
STARLINK-2705           
1 48672U 21044AL  25075.94538116  .00004543  00000+0  32364-3 0  9990
2 48672  53.0529 277.5956 0001302  92.0696 268.0442 15.06405537210827
STARLINK-2711           
1 48673U 21044AM  25075.87534616  .00001793  00000+0  13922-3 0  9997
2 48673  53.0536 277.9092 0001235 100.3160 259.7968 15.06403053209914
STARLINK-2712           
1 48674U 21044AN  25075.94908144  .00010251  00000+0  70607-3 0  9999
2 48674  53.0530 277.6945 0001295  82.5084 277.6052 15.06399960209920
STARLINK-2746           
1 48676U 21044AQ  25075.86431288 -.00001599  00000+0 -88541-4 0  9996
2 48676  53.0537 277.9597 0001682 101.5414 258.5764 15.06380415209916
STARLINK-2615           
1 48678U 21044AS  25075.85691526  .00000731  00000+0  67969-4 0  9996
2 48678  53.0538 277.9910 0001528  88.7708 271.3456 15.06401432209913
STARLINK-2648           
1 48679U 21044AT  25075.72054419  .00000066  00000+0  23315-4 0  9995
2 48679  53.0540 278.6050 0001193  88.0513 272.0612 15.06399561209893
STARLINK-2649           
1 48680U 21044AU  25076.25001157  .01193562  00000+0  28229-1 0  9998
2 48680  53.0494 274.5905 0001234 109.5552  24.4805 15.38802097210898
STARLINK-2725           
1 48681U 21044AV  25076.18036036 -.00016110  00000+0 -10645-2 0  9993
2 48681  53.0539 246.7808 0000978  90.5791 269.5310 15.06420702211270
STARLINK-2743           
1 48682U 21044AW  25076.17762307  .00022065  00000+0  14935-2 0  9990
2 48682  53.0532 236.7111 0001458  95.3265 264.7891 15.06452070211356
STARLINK-2756           
1 48683U 21044AX  25075.66892624  .00004378  00000+0  31260-3 0  9998
2 48683  53.0536 238.8428 0001338  92.0652 268.0491 15.06405924210444
STARLINK-2741           
1 48684U 21044AY  25075.69154971  .00002384  00000+0  17883-3 0  9998
2 48684  53.0538 254.0873 0001156  88.0591 272.0531 15.06409246210234
STARLINK-2751           
1 48685U 21044AZ  25076.17022238  .00001536  00000+0  12199-3 0  9996
2 48685  53.0522 236.6300 0000838  83.1883 276.9202 15.06400044211365
STARLINK-2629           
1 48686U 21044BA  25076.16425681  .00002792  00000+0  20614-3 0  9991
2 48686  53.0540 241.8911 0001039  84.5853 275.5254 15.06420772211348
STARLINK-2627           
1 48687U 21044BB  25075.80761799  .00001125  00000+0  94365-4 0  9999
2 48687  53.0556 233.2106 0001367  92.5751 267.5395 15.06403589210531
STARLINK-2742           
1 48688U 21044BC  25076.14302934  .00002595  00000+0  19305-3 0  9992
2 48688  53.0551 231.7055 0001134  86.0577 274.0542 15.06402459211420
STARLINK-2740           
1 48690U 21044BE  25075.69012578  .00007514  00000+0  52271-3 0  9991
2 48690  53.0537 248.7364 0001429  88.7624 271.3528 15.06406946210302
STARLINK-2750           
1 48691U 21044BF  25075.72928109  .00001376  00000+0  11120-3 0  9990
2 48691  53.0542 243.5604 0001170  91.8384 268.2739 15.06407020210381
STARLINK-2752           
1 48692U 21044BG  25075.84726895  .00007313  00000+0  50912-3 0  9991
2 48692  53.0535 243.1586 0001548  98.5733 261.5431 15.06414822210406
STARLINK-2618           
1 48693U 21044BH  25075.78870058  .00000817  00000+0  73708-4 0  9997
2 48693  53.0535 248.2990 0001244  94.5678 265.5453 15.06400801210320
STARLINK-2748           
1 48694U 21044BJ  25075.75690901  .00004787  00000+0  33996-3 0  9996
2 48694  53.0535 253.4271 0001845  91.3430 268.7770 15.06407513210244
STARLINK-2616           
1 48695U 21044BK  25075.77997791  .00003779  00000+0  27244-3 0  9995
2 48695  53.0539 253.3847 0001357  91.5818 268.5326 15.06399022210258
STARLINK-2753           
1 48696U 21044BL  25075.90298476  .00002112  00000+0  16055-3 0  9993
2 48696  53.0543 257.8329 0001280  90.2355 269.8781 15.06412637210207
STARLINK-3004           
1 48880U 21059B   25076.23224112  .00003394  00000+0  26874-3 0  9990
2 48880  97.6603 202.7485 0000813 268.1112  92.0019 15.01256015205163
STARLINK-3005           
1 48881U 21059C   25076.22558668  .00000697  00000+0  58871-4 0  9992
2 48881  97.6588 202.6988 0001685  96.6772 263.4643 15.01262763205172
STARLINK-3096           
1 49131U 21082B   25076.25974954 -.00002924  00000+0 -23724-3 0  9995
2 49131  69.9989  75.6542 0003193 270.6728  89.4066 14.98344550193422
